ZACUBE-1 (TSHEPISOSAT)  
1 39417U 13066B   26073.13182302  .00005011  00000+0  39631-3 0  9999
2 39417  97.8156  34.9774 0043049 205.1786 154.7340 15.00372843666471
WNISAT-1                
1 39423U 13066H   26073.43547474  .00001937  00000+0  35992-3 0  9993
2 39423  97.7047 229.3979 0163884 169.9184 190.5372 14.57892716652927
TRITON-1                
1 39427U 13066M   26073.67015506  .00002804  00000+0  34228-3 0  9994
2 39427  97.8289 345.6452 0090506 181.4252 178.6717 14.81227409660098
GOMX-1                  
1 39430U 13066Q   26073.52434723  .00001923  00000+0  29526-3 0  9994
2 39430  97.6572 279.9280 0129897  22.0918 338.5816 14.69117694656012
CUBEBUG-2 (LO-74)       
1 39440U 13066AA  26073.38908112  .00006556  00000+0  61561-3 0  9999
2 39440  97.8810  22.0690 0058035 343.4169  16.5150 14.93018127662845
NEE-02 KRYSAOR          
1 39441U 13066AB  26073.56226096  .00004208  00000+0  46617-3 0  9991
2 39441  97.8815  13.5188 0067326  21.3141 339.0854 14.86200900662144
FUNCUBE-1 (AO-73)       
1 39444U 13066AE  26072.35704843  .00007962  00000+0  51353-3 0  9994
2 39444  97.8186  41.9580 0037754 166.4701 193.7548 15.07980612665219
UWE-3                   
1 39446U 13066AG  26073.61172463  .00006966  00000+0  60832-3 0  9998
2 39446  97.8593  29.1621 0047907 275.1721  84.4033 14.96242909663432
BRITE-CA1 (TORONTO)     
1 40020U 14033L   26073.31789968  .00001581  00000+0  24561-3 0  9991
2 40020  97.9574 204.0901 0078101 219.9071 139.6379 14.72479469628255
DUCHIFAT-1              
1 40021U 14033M   26073.60578680  .00086823  00000+0  15095-2 0  9994
2 40021  98.0635 120.6147 0005629  70.3832 289.8025 15.50481818641035
NANOSATC-BR1            
1 40024U 14033Q   26073.30413813  .00021180  00000+0  76934-3 0  9995
2 40024  98.0842  97.4678 0005007 137.2432 222.9196 15.28315368639470
QB50P1                  
1 40025U 14033R   26073.46052450  .00011401  00000+0  58588-3 0  9999
2 40025  98.1006  78.0660 0008912 177.3955 182.7325 15.16630587638660
QB50P2                  
1 40032U 14033Y   26073.48892310  .00011315  00000+0  63019-3 0  9995
2 40032  98.0731  64.5865 0009134 128.5595 231.6454 15.13772512638337
PERSEUS-M2              
1 40037U 14033AD  26073.57928499  .00001349  00000+0  12823-3 0  9991
2 40037  97.9860  22.2721 0010621 252.0577 107.9486 14.95177917636640
PERSEUS-M1              
1 40039U 14033AF  26073.35837543  .00002213  00000+0  20628-3 0  9991
2 40039  97.9551  16.0084 0010314 250.6320 109.3785 14.95275317636462
POLYITAN-1              
1 40042U 14033AJ  26073.58043194  .00029301  00000+0  10141-2 0  9996
2 40042  98.1050  91.1045 0009577 114.5352 245.6886 15.29795133639118
