[{"OBJECT_NAME":"ZACUBE-1 (TSHEPISOSAT)","OBJECT_ID":"2013-066B","EPOCH":"2026-03-14T03:09:49.508928","MEAN_MOTION":15.00372843,"ECCENTRICITY":0.00430498,"INCLINATION":97.8156,"RA_OF_ASC_NODE":34.9774,"ARG_OF_PERICENTER":205.1786,"MEAN_ANOMALY":154.734,"EPHEMERIS_TYPE":0,"CLASSIFICATION_TYPE":"U","NORAD_CAT_ID":39417,"ELEMENT_SET_NO":999,"REV_AT_EPOCH":66647,"BSTAR":0.00039630702,"MEAN_MOTION_DOT":5.011e-5,"MEAN_MOTION_DDOT":0},{"OBJECT_NAME":"WNISAT-1","OBJECT_ID":"2013-066H","EPOCH":"2026-03-14T10:27:05.017536","MEAN_MOTION":14.57892716,"ECCENTRICITY":0.01638846,"INCLINATION":97.7047,"RA_OF_ASC_NODE":229.3979,"ARG_OF_PERICENTER":169.9184,"MEAN_ANOMALY":190.5372,"EPHEMERIS_TYPE":0,"CLASSIFICATION_TYPE":"U","NORAD_CAT_ID":39423,"ELEMENT_SET_NO":999,"REV_AT_EPOCH":65292,"BSTAR":0.00035991638,"MEAN_MOTION_DOT":1.937e-5,"MEAN_MOTION_DDOT":0},{"OBJECT_NAME":"TRITON-1","OBJECT_ID":"2013-066M","EPOCH":"2026-03-14T16:05:01.397184","MEAN_MOTION":14.81227409,"ECCENTRICITY":0.00905068,"INCLINATION":97.8289,"RA_OF_ASC_NODE":345.6452,"ARG_OF_PERICENTER":181.4252,"MEAN_ANOMALY":178.6717,"EPHEMERIS_TYPE":0,"CLASSIFICATION_TYPE":"U","NORAD_CAT_ID":39427,"ELEMENT_SET_NO":999,"REV_AT_EPOCH":66009,"BSTAR":0.00034227626,"MEAN_MOTION_DOT":2.804e-5,"MEAN_MOTION_DDOT":0},{"OBJECT_NAME":"GOMX-1","OBJECT_ID":"2013-066Q","EPOCH":"2026-03-14T12:35:03.600672","MEAN_MOTION":14.69117694,"ECCENTRICITY":0.01298975,"INCLINATION":97.6572,"RA_OF_ASC_NODE":279.928,"ARG_OF_PERICENTER":22.0918,"MEAN_ANOMALY":338.5816,"EPHEMERIS_TYPE":0,"CLASSIFICATION_TYPE":"U","NORAD_CAT_ID":39430,"ELEMENT_SET_NO":999,"REV_AT_EPOCH":65601,"BSTAR":0.00029525739,"MEAN_MOTION_DOT":1.923e-5,"MEAN_MOTION_DDOT":0},{"OBJECT_NAME":"CUBEBUG-2 (LO-74)","OBJECT_ID":"2013-066AA","EPOCH":"2026-03-14T09:20:16.608768","MEAN_MOTION":14.93018127,"ECCENTRICITY":0.00580358,"INCLINATION":97.881,"RA_OF_ASC_NODE":22.069,"ARG_OF_PERICENTER":343.4169,"MEAN_ANOMALY":16.515,"EPHEMERIS_TYPE":0,"CLASSIFICATION_TYPE":"U","NORAD_CAT_ID":39440,"ELEMENT_SET_NO":999,"REV_AT_EPOCH":66284,"BSTAR":0.00061561312,"MEAN_MOTION_DOT":6.556e-5,"MEAN_MOTION_DDOT":0},{"OBJECT_NAME":"NEE-02 KRYSAOR","OBJECT_ID":"2013-066AB","EPOCH":"2026-03-14T13:29:39.346944","MEAN_MOTION":14.862009,"ECCENTRICITY":0.0067326,"INCLINATION":97.8815,"RA_OF_ASC_NODE":13.5188,"ARG_OF_PERICENTER":21.3141,"MEAN_ANOMALY":339.0854,"EPHEMERIS_TYPE":0,"CLASSIFICATION_TYPE":"U","NORAD_CAT_ID":39441,"ELEMENT_SET_NO":999,"REV_AT_EPOCH":66214,"BSTAR":0.00046617348,"MEAN_MOTION_DOT":4.208e-5,"MEAN_MOTION_DDOT":0},{"OBJECT_NAME":"FUNCUBE-1 (AO-73)","OBJECT_ID":"2013-066AE","EPOCH":"2026-03-13T08:34:08.984352","MEAN_MOTION":15.07980612,"ECCENTRICITY":0.00377544,"INCLINATION":97.8186,"RA_OF_ASC_NODE":41.958,"ARG_OF_PERICENTER":166.4701,"MEAN_ANOMALY":193.7548,"EPHEMERIS_TYPE":0,"CLASSIFICATION_TYPE":"U","NORAD_CAT_ID":39444,"ELEMENT_SET_NO":999,"REV_AT_EPOCH":66521,"BSTAR":0.0005135257,"MEAN_MOTION_DOT":7.962e-5,"MEAN_MOTION_DDOT":0},{"OBJECT_NAME":"UWE-3","OBJECT_ID":"2013-066AG","EPOCH":"2026-03-14T14:40:53.008032","MEAN_MOTION":14.96242909,"ECCENTRICITY":0.00479073,"INCLINATION":97.8593,"RA_OF_ASC_NODE":29.1621,"ARG_OF_PERICENTER":275.1721,"MEAN_ANOMALY":84.4033,"EPHEMERIS_TYPE":0,"CLASSIFICATION_TYPE":"U","NORAD_CAT_ID":39446,"ELEMENT_SET_NO":999,"REV_AT_EPOCH":66343,"BSTAR":0.00060832099,"MEAN_MOTION_DOT":6.966e-5,"MEAN_MOTION_DDOT":0},{"OBJECT_NAME":"BRITE-CA1 (TORONTO)","OBJECT_ID":"2014-033L","EPOCH":"2026-03-14T07:37:46.532352","MEAN_MOTION":14.72479469,"ECCENTRICITY":0.0078101,"INCLINATION":97.9574,"RA_OF_ASC_NODE":204.0901,"ARG_OF_PERICENTER":219.9071,"MEAN_ANOMALY":139.6379,"EPHEMERIS_TYPE":0,"CLASSIFICATION_TYPE":"U","NORAD_CAT_ID":40020,"ELEMENT_SET_NO":999,"REV_AT_EPOCH":62825,"BSTAR":0.0002456148,"MEAN_MOTION_DOT":1.581e-5,"MEAN_MOTION_DDOT":0},{"OBJECT_NAME":"DUCHIFAT-1","OBJECT_ID":"2014-033M","EPOCH":"2026-03-14T14:32:19.979520","MEAN_MOTION":15.50481818,"ECCENTRICITY":0.00056298,"INCLINATION":98.0635,"RA_OF_ASC_NODE":120.6147,"ARG_OF_PERICENTER":70.3832,"MEAN_ANOMALY":289.8025,"EPHEMERIS_TYPE":0,"CLASSIFICATION_TYPE":"U","NORAD_CAT_ID":40021,"ELEMENT_SET_NO":999,"REV_AT_EPOCH":64103,"BSTAR":0.0015095478,"MEAN_MOTION_DOT":0.00086823,"MEAN_MOTION_DDOT":0},{"OBJECT_NAME":"NANOSATC-BR1","OBJECT_ID":"2014-033Q","EPOCH":"2026-03-14T07:17:57.534432","MEAN_MOTION":15.28315368,"ECCENTRICITY":0.0005007,"INCLINATION":98.0842,"RA_OF_ASC_NODE":97.4678,"ARG_OF_PERICENTER":137.2432,"MEAN_ANOMALY":222.9196,"EPHEMERIS_TYPE":0,"CLASSIFICATION_TYPE":"U","NORAD_CAT_ID":40024,"ELEMENT_SET_NO":999,"REV_AT_EPOCH":63947,"BSTAR":0.00076934033,"MEAN_MOTION_DOT":0.0002118,"MEAN_MOTION_DDOT":0},{"OBJECT_NAME":"QB50P1","OBJECT_ID":"2014-033R","EPOCH":"2026-03-14T11:03:09.316800","MEAN_MOTION":15.16630587,"ECCENTRICITY":0.00089121,"INCLINATION":98.1006,"RA_OF_ASC_NODE":78.066,"ARG_OF_PERICENTER":177.3955,"MEAN_ANOMALY":182.7325,"EPHEMERIS_TYPE":0,"CLASSIFICATION_TYPE":"U","NORAD_CAT_ID":40025,"ELEMENT_SET_NO":999,"REV_AT_EPOCH":63866,"BSTAR":0.0005858751,"MEAN_MOTION_DOT":0.00011401,"MEAN_MOTION_DDOT":0},{"OBJECT_NAME":"QB50P2","OBJECT_ID":"2014-033Y","EPOCH":"2026-03-14T11:44:02.955840","MEAN_MOTION":15.13772512,"ECCENTRICITY":0.00091341,"INCLINATION":98.0731,"RA_OF_ASC_NODE":64.5865,"ARG_OF_PERICENTER":128.5595,"MEAN_ANOMALY":231.6454,"EPHEMERIS_TYPE":0,"CLASSIFICATION_TYPE":"U","NORAD_CAT_ID":40032,"ELEMENT_SET_NO":999,"REV_AT_EPOCH":63833,"BSTAR":0.00063019345,"MEAN_MOTION_DOT":0.00011315,"MEAN_MOTION_DDOT":0},{"OBJECT_NAME":"PERSEUS-M2","OBJECT_ID":"2014-033AD","EPOCH":"2026-03-14T13:54:10.223136","MEAN_MOTION":14.95177917,"ECCENTRICITY":0.00106216,"INCLINATION":97.986,"RA_OF_ASC_NODE":22.2721,"ARG_OF_PERICENTER":252.0577,"MEAN_ANOMALY":107.9486,"EPHEMERIS_TYPE":0,"CLASSIFICATION_TYPE":"U","NORAD_CAT_ID":40037,"ELEMENT_SET_NO":999,"REV_AT_EPOCH":63664,"BSTAR":0.00012822633,"MEAN_MOTION_DOT":1.349e-5,"MEAN_MOTION_DDOT":0},{"OBJECT_NAME":"PERSEUS-M1","OBJECT_ID":"2014-033AF","EPOCH":"2026-03-14T08:36:03.637152","MEAN_MOTION":14.95275317,"ECCENTRICITY":0.00103143,"INCLINATION":97.9551,"RA_OF_ASC_NODE":16.0084,"ARG_OF_PERICENTER":250.632,"MEAN_ANOMALY":109.3785,"EPHEMERIS_TYPE":0,"CLASSIFICATION_TYPE":"U","NORAD_CAT_ID":40039,"ELEMENT_SET_NO":999,"REV_AT_EPOCH":63646,"BSTAR":0.00020628153,"MEAN_MOTION_DOT":2.213e-5,"MEAN_MOTION_DDOT":0},{"OBJECT_NAME":"POLYITAN-1","OBJECT_ID":"2014-033AJ","EPOCH":"2026-03-14T13:55:49.319616","MEAN_MOTION":15.29795133,"ECCENTRICITY":0.00095771,"INCLINATION":98.105,"RA_OF_ASC_NODE":91.1045,"ARG_OF_PERICENTER":114.5352,"MEAN_ANOMALY":245.6886,"EPHEMERIS_TYPE":0,"CLASSIFICATION_TYPE":"U","NORAD_CAT_ID":40042,"ELEMENT_SET_NO":999,"REV_AT_EPOCH":63911,"BSTAR":0.0010140887,"MEAN_MOTION_DOT":0.00029301,"MEAN_MOTION_DDOT":0}]
